[{"OBJECT_NAME":"STARLINK-5771","OBJECT_ID":"2023-042AP","EPOCH":"2026-03-09T07:43:44.707008","MEAN_MOTION":15.03041905,"ECCENTRICITY":0.00018472,"INCLINATION":43.0045,"RA_OF_ASC_NODE":45.2113,"ARG_OF_PERICENTER":257.6913,"MEAN_ANOMALY":102.3723,"EPHEMERIS_TYPE":0,"CLASSIFICATION_TYPE":"U","NORAD_CAT_ID":56023,"ELEMENT_SET_NO":999,"REV_AT_EPOCH":16300,"BSTAR":0.0045779413,"MEAN_MOTION_DOT":0.00063039,"MEAN_MOTION_DDOT":0},{"OBJECT_NAME":"CZ-6A DEB","OBJECT_ID":"2022-151NQ","EPOCH":"2026-03-09T17:05:31.837920","MEAN_MOTION":14.96919824,"ECCENTRICITY":0.00482154,"INCLINATION":98.6429,"RA_OF_ASC_NODE":147.6002,"ARG_OF_PERICENTER":185.0484,"MEAN_ANOMALY":175.0256,"EPHEMERIS_TYPE":0,"CLASSIFICATION_TYPE":"U","NORAD_CAT_ID":54614,"ELEMENT_SET_NO":999,"REV_AT_EPOCH":10489,"BSTAR":0.0050921909,"MEAN_MOTION_DOT":0.00060273,"MEAN_MOTION_DDOT":0}]
